[{"OBJECT_NAME":"KAZEOSAT 1","OBJECT_ID":"2014-024A","EPOCH":"2026-03-09T22:32:10.650624","MEAN_MOTION":14.4203561,"ECCENTRICITY":0.0001038,"INCLINATION":98.3278,"RA_OF_ASC_NODE":143.8269,"ARG_OF_PERICENTER":83.2576,"MEAN_ANOMALY":276.8732,"EPHEMERIS_TYPE":0,"CLASSIFICATION_TYPE":"U","NORAD_CAT_ID":39731,"ELEMENT_SET_NO":999,"REV_AT_EPOCH":62425,"BSTAR":8.1032563e-5,"MEAN_MOTION_DOT":2.23e-6,"MEAN_MOTION_DDOT":0},{"OBJECT_NAME":"SL-8 R\/B","OBJECT_ID":"1975-112B","EPOCH":"2026-03-09T22:05:26.016864","MEAN_MOTION":14.38203886,"ECCENTRICITY":0.00144297,"INCLINATION":74.0629,"RA_OF_ASC_NODE":18.4872,"ARG_OF_PERICENTER":111.679,"MEAN_ANOMALY":248.5902,"EPHEMERIS_TYPE":0,"CLASSIFICATION_TYPE":"U","NORAD_CAT_ID":8459,"ELEMENT_SET_NO":999,"REV_AT_EPOCH":63190,"BSTAR":0.00011399235,"MEAN_MOTION_DOT":3.21e-6,"MEAN_MOTION_DDOT":0}]
